PROBA-1                 
1 26958U 01049B   26193.62430816  .00001696  00000+0  11210-3 0  9994
2 26958  97.9607 203.0457 0055931  38.1735 322.3432 15.07609618347456
CUTE-1 (CO-55)          
1 27844U 03031E   26193.53707035  .00000153  00000+0  85274-4 0  9991
2 27844  98.6742 201.7775 0010779 109.4665 250.7680 14.24350488195289
CUBESAT XI-IV (CO-57)   
1 27848U 03031J   26193.53826736  .00000128  00000+0  75348-4 0  9998
2 27848  98.6772 201.4707 0010448 126.3839 233.8305 14.23633637194983
APRIZESAT 4             
1 35684U 09041D   26193.00425065  .00000360  00000+0  49734-4 0  9992
2 35684  98.1404 268.8187 0042069 240.1403 119.5627 14.83911189915044
APRIZESAT 3             
1 35686U 09041F   26193.24329514  .00001052  00000+0  95583-4 0  9994
2 35686  98.2092 347.6723 0060978 345.6704  14.2784 14.96304910920128
PROBA-2                 
1 36037U 09059B   26193.48103607  .00000089  00000+0  31240-4 0  9992
2 36037  98.2458  16.4841 0012816 197.3060 162.7701 14.54872953885200
APRIZESAT 5             
1 37792U 11044E   26192.80096187  .00000453  00000+0  64640-4 0  9992
2 37792  98.2450 126.5399 0050739 283.9299  75.6273 14.81124114802433
APRIZESAT 6             
1 37793U 11044F   26192.73832200  .00000397  00000+0  63524-4 0  9996
2 37793  98.2343 103.7374 0043339   9.2855  45.5114 14.76953608800777
PROBA-V                 
1 39159U 13021A   26193.49189182  .00000031  00000+0  31690-4 0  9993
2 39159  98.3603 170.8514 0005331  66.2840 293.8899 14.23603169684711
APRIZESAT 7             
1 39416U 13066A   26193.31054922  .00000495  00000+0  54328-4 0  9999
2 39416  97.7721 146.1716 0037048 126.5461 233.9178 14.91615565684971
APRIZESAT 8             
1 39425U 13066K   26193.29687563  .00000406  00000+0  49915-4 0  9997
2 39425  97.8228 140.4164 0045254 201.5084 158.4232 14.87693684683403
BUGSAT-1 (TITA)         
1 40014U 14033E   26193.51858212  .00003066  00000+0  16255-3 0  9999
2 40014  98.0436 287.5532 0029145  94.6153 265.8408 15.15864869659671
SAUDISAT 4              
1 40016U 14033G   26193.41198874  .00000263  00000+0  41433-4 0  9994
2 40016  97.7613 338.6788 0044484 353.1734   6.8867 14.79573890649804
APRIZESAT 9             
1 40018U 14033J   26193.59228018  .00000349  00000+0  58616-4 0  9995
2 40018  97.9090 326.1742 0067364 118.1350 242.6688 14.74250536647302
APRIZESAT 10            
1 40019U 14033K   26192.82052080  .00000330  00000+0  59735-4 0  9998
2 40019  97.9677 319.2345 0078454 194.1474 165.7536 14.70908468645876
TECHDEMOSAT-1 (TDS-1)   
1 40076U 14037H   26193.54624980  .00004438  00000+0  25107-3 0  9997
2 40076  98.3822 188.2809 0006672 167.0369 193.1032 15.13655257652068
TECHNOSAT               
1 42829U 17042E   26193.31433347  .00002176  00000+0  15666-3 0  9990
2 42829  97.4310 350.0210 0017694  12.7462 347.4209 15.05099876490485
FLYING LAPTOP           
1 42831U 17042G   26193.58070772  .00002162  00000+0  17186-3 0  9995
2 42831  97.4790 348.1565 0019820  40.8258 319.4447 15.01302217490260
HAWK-A                  
1 43765U 18099H   26193.61369740  .00004156  00000+0  16702-3 0  9993
2 43765  97.3903 245.5205 0034449 193.0489 166.9861 15.24943831416973
HAWK-B                  
1 43794U 18099AN  26193.60004163  .00003510  00000+0  14996-3 0  9995
2 43794  97.3953 244.8684 0031133 211.3494 148.5888 15.23096806416908
HAWK-C                  
1 43799U 18099AT  26193.53225136  .00004948  00000+0  17718-3 0  9998
2 43799  97.3881 246.4780 0040020 193.2528 166.7664 15.28463847417788
SALSAT                  
1 46495U 20068K   26192.54062004  .00004447  00000+0  15528-3 0  9997
2 46495  97.8855 197.0941 0008823 206.5203 153.5586 15.30139435319080
HAWK-2C                 
1 47502U 21006CT  26193.18787188  .00003972  00000+0  11930-3 0  9993
2 47502  97.2270 237.0013 0008604 109.3431 250.8744 15.34964737303333
HAWK-2A                 
1 47505U 21006CW  26193.58126392  .00004060  00000+0  12187-3 0  9998
2 47505  97.2312 238.0796 0008135 111.5414 248.6698 15.34983234303399
HAWK-2B                 
1 47508U 21006CZ  26193.57500765  .00004610  00000+0  13746-3 0  9993
2 47508  97.2184 236.3651 0008682 109.7680 250.4501 15.35112253303391
HAWK-3B                 
1 48931U 21059BE  26193.55364625  .00032206  00000+0  25051-3 0  9997
2 48931  97.6638  32.7011 0004238 208.8876 151.2152 15.71695978281833
HAWK-3C                 
1 48948U 21059BX  26193.55333511  .00035057  00000+0  27246-3 0  9990
2 48948  97.6757  38.4300 0004501 208.2392 151.8627 15.71698478281838
HAWK-3A                 
1 48957U 21059CG  26193.55322252  .00034366  00000+0  26712-3 0  9999
2 48957  97.6701  35.6142 0004422 211.0194 149.0808 15.71699440281834
HAWK-5C                 
1 52754U 22057Y   26193.57897734  .00011606  00000+0  19278-3 0  9993
2 52754  97.6605 354.9039 0003078 357.1228   3.0006 15.52264126230285
HAWK-5B                 
1 52756U 22057AA  26193.57878906  .00011504  00000+0  19111-3 0  9998
2 52756  97.6620 353.2566 0003723 343.1671  16.9457 15.52261801230285
