OBJECT_NAME,OBJECT_ID,EPOCH,MEAN_MOTION,ECCENTRICITY,INCLINATION,RA_OF_ASC_NODE,ARG_OF_PERICENTER,MEAN_ANOMALY,EPHEMERIS_TYPE,CLASSIFICATION_TYPE,NORAD_CAT_ID,ELEMENT_SET_NO,REV_AT_EPOCH,BSTAR,MEAN_MOTION_DOT,MEAN_MOTION_DDOT
PROBA-1,2001-049B,2026-07-12T14:59:00.225024,15.07609618,.00559318,97.9607,203.0457,38.1735,322.3432,0,U,26958,999,34745,.11209656E-3,.1696E-4,0
CUTE-1 (CO-55),2003-031E,2026-07-12T12:53:22.878240,14.24350488,.00107791,98.6742,201.7775,109.4665,250.7680,0,U,27844,999,19528,.85273713E-4,.153E-5,0
CUBESAT XI-IV (CO-57),2003-031J,2026-07-12T12:55:06.299904,14.23633637,.00104483,98.6772,201.4707,126.3839,233.8305,0,U,27848,999,19498,.7534821E-4,.128E-5,0
APRIZESAT 4,2009-041D,2026-07-12T00:06:07.256160,14.83911189,.00420697,98.1404,268.8187,240.1403,119.5627,0,U,35684,999,91504,.49734208E-4,.36E-5,0
APRIZESAT 3,2009-041F,2026-07-12T05:50:20.700096,14.96304910,.0060978,98.2092,347.6723,345.6704,14.2784,0,U,35686,999,92012,.95583E-4,.1052E-4,0
PROBA-2,2009-059B,2026-07-12T11:32:41.516448,14.54872953,.00128164,98.2458,16.4841,197.3060,162.7701,0,U,36037,999,88520,.31239514E-4,.89E-6,0
APRIZESAT 5,2011-044E,2026-07-11T19:13:23.105568,14.81124114,.00507399,98.2450,126.5399,283.9299,75.6273,0,U,37792,999,80243,.6464032E-4,.453E-5,0
APRIZESAT 6,2011-044F,2026-07-11T17:43:11.020800,14.76953608,.00433395,98.2343,103.7374,9.2855,45.5114,0,U,37793,999,80077,.63523811E-4,.397E-5,0
PROBA-V,2013-021A,2026-07-12T11:48:19.453248,14.23603169,.00053313,98.3603,170.8514,66.2840,293.8899,0,U,39159,999,68471,.31690165E-4,.31E-6,0
APRIZESAT 7,2013-066A,2026-07-12T07:27:11.452608,14.91615565,.00370482,97.7721,146.1716,126.5461,233.9178,0,U,39416,999,68497,.54328401E-4,.495E-5,0
APRIZESAT 8,2013-066K,2026-07-12T07:07:30.054432,14.87693684,.00452541,97.8228,140.4164,201.5084,158.4232,0,U,39425,999,68340,.49914875E-4,.406E-5,0
BUGSAT-1 (TITA),2014-033E,2026-07-12T12:26:45.495168,15.15864869,.00291453,98.0436,287.5532,94.6153,265.8408,0,U,40014,999,65967,.16254832E-3,.3066E-4,0
SAUDISAT 4,2014-033G,2026-07-12T09:53:15.827136,14.79573890,.00444845,97.7613,338.6788,353.1734,6.8867,0,U,40016,999,64980,.41432526E-4,.263E-5,0
APRIZESAT 9,2014-033J,2026-07-12T14:12:53.007552,14.74250536,.00673641,97.9090,326.1742,118.1350,242.6688,0,U,40018,999,64730,.58615853E-4,.349E-5,0
APRIZESAT 10,2014-033K,2026-07-11T19:41:32.997120,14.70908468,.00784548,97.9677,319.2345,194.1474,165.7536,0,U,40019,999,64587,.59735372E-4,.33E-5,0
TECHDEMOSAT-1 (TDS-1),2014-037H,2026-07-12T13:06:35.982720,15.13655257,.00066721,98.3822,188.2809,167.0369,193.1032,0,U,40076,999,65206,.25106655E-3,.4438E-4,0
TECHNOSAT,2017-042E,2026-07-12T07:32:38.411808,15.05099876,.00176948,97.4310,350.0210,12.7462,347.4209,0,U,42829,999,49048,.15666364E-3,.2176E-4,0
FLYING LAPTOP,2017-042G,2026-07-12T13:56:13.147008,15.01302217,.00198204,97.4790,348.1565,40.8258,319.4447,0,U,42831,999,49026,.17186147E-3,.2162E-4,0
HAWK-A,2018-099H,2026-07-12T14:43:43.455360,15.24943831,.0034449,97.3903,245.5205,193.0489,166.9861,0,U,43765,999,41697,.16701794E-3,.4156E-4,0
HAWK-B,2018-099AN,2026-07-12T14:24:03.596832,15.23096806,.00311333,97.3953,244.8684,211.3494,148.5888,0,U,43794,999,41690,.14996454E-3,.351E-4,0
HAWK-C,2018-099AT,2026-07-12T12:46:26.517504,15.28463847,.00400207,97.3881,246.4780,193.2528,166.7664,0,U,43799,999,41778,.17717908E-3,.4948E-4,0
SALSAT,2020-068K,2026-07-11T12:58:29.571456,15.30139435,.00088233,97.8855,197.0941,206.5203,153.5586,0,U,46495,999,31908,.15528118E-3,.4447E-4,0
HAWK-2C,2021-006CT,2026-07-12T04:30:32.130432,15.34964737,.00086047,97.2270,237.0013,109.3431,250.8744,0,U,47502,999,30333,.11930126E-3,.3972E-4,0
HAWK-2A,2021-006CW,2026-07-12T13:57:01.202688,15.34983234,.00081351,97.2312,238.0796,111.5414,248.6698,0,U,47505,999,30339,.12186691E-3,.406E-4,0
HAWK-2B,2021-006CZ,2026-07-12T13:48:00.660960,15.35112253,.00086828,97.2184,236.3651,109.7680,250.4501,0,U,47508,999,30339,.13745916E-3,.461E-4,0
HAWK-3B,2021-059BE,2026-07-12T13:17:15.036000,15.71695978,.00042381,97.6638,32.7011,208.8876,151.2152,0,U,48931,999,28183,.25051472E-3,.32206E-3,0
HAWK-3C,2021-059BX,2026-07-12T13:16:48.153504,15.71698478,.00045015,97.6757,38.4300,208.2392,151.8627,0,U,48948,999,28183,.27246147E-3,.35057E-3,0
HAWK-3A,2021-059CG,2026-07-12T13:16:38.425728,15.71699440,.00044223,97.6701,35.6142,211.0194,149.0808,0,U,48957,999,28183,.26712455E-3,.34366E-3,0
HAWK-5C,2022-057Y,2026-07-12T13:53:43.642176,15.52264126,.00030785,97.6605,354.9039,357.1228,3.0006,0,U,52754,999,23028,.19277902E-3,.11606E-3,0
HAWK-5B,2022-057AA,2026-07-12T13:53:27.374784,15.52261801,.00037239,97.6620,353.2566,343.1671,16.9457,0,U,52756,999,23028,.19110712E-3,.11504E-3,0
